[{"OBJECT_NAME":"SL-16 R/B","OBJECT_ID":"1993-059B","EPOCH":"2026-03-30T02:04:42.322944","MEAN_MOTION":14.17234703,"ECCENTRICITY":0.0017345,"INCLINATION":70.9916,"RA_OF_ASC_NODE":328.1164,"ARG_OF_PERICENTER":186.8556,"MEAN_ANOMALY":173.2333,"EPHEMERIS_TYPE":0,"CLASSIFICATION_TYPE":"U","NORAD_CAT_ID":22803,"ELEMENT_SET_NO":999,"REV_AT_EPOCH":68242,"BSTAR":-6.5123e-5,"MEAN_MOTION_DOT":-1.8e-6,"MEAN_MOTION_DDOT":0},{"OBJECT_NAME":"ARIANE 40 R/B","OBJECT_ID":"1993-061H","EPOCH":"2026-03-30T03:48:44.338464","MEAN_MOTION":14.32871839,"ECCENTRICITY":0.0010073,"INCLINATION":98.4878,"RA_OF_ASC_NODE":157.6388,"ARG_OF_PERICENTER":218.2357,"MEAN_ANOMALY":141.8114,"EPHEMERIS_TYPE":0,"CLASSIFICATION_TYPE":"U","NORAD_CAT_ID":22830,"ELEMENT_SET_NO":999,"REV_AT_EPOCH":69703,"BSTAR":0.00010717,"MEAN_MOTION_DOT":2.5e-6,"MEAN_MOTION_DDOT":0},{"OBJECT_NAME":"COSMOS 2278","OBJECT_ID":"1994-023A","EPOCH":"2026-03-30T02:34:53.534784","MEAN_MOTION":14.14375204,"ECCENTRICITY":0.0009191,"INCLINATION":71.0513,"RA_OF_ASC_NODE":132.3826,"ARG_OF_PERICENTER":341.9822,"MEAN_ANOMALY":18.0973,"EPHEMERIS_TYPE":0,"CLASSIFICATION_TYPE":"U","NORAD_CAT_ID":23087,"ELEMENT_SET_NO":999,"REV_AT_EPOCH":64769,"BSTAR":-6.2074e-5,"MEAN_MOTION_DOT":-1.66e-6,"MEAN_MOTION_DDOT":0},{"OBJECT_NAME":"SL-16 R/B","OBJECT_ID":"1994-023B","EPOCH":"2026-03-30T01:46:48.549792","MEAN_MOTION":14.15016358,"ECCENTRICITY":0.0005483,"INCLINATION":71.0021,"RA_OF_ASC_NODE":28.0758,"ARG_OF_PERICENTER":266.8676,"MEAN_ANOMALY":93.1819,"EPHEMERIS_TYPE":0,"CLASSIFICATION_TYPE":"U","NORAD_CAT_ID":23088,"ELEMENT_SET_NO":999,"REV_AT_EPOCH":64897,"BSTAR":0.00019761,"MEAN_MOTION_DOT":3.35e-6,"MEAN_MOTION_DDOT":0},{"OBJECT_NAME":"SL-16 R/B","OBJECT_ID":"1994-074B","EPOCH":"2026-03-30T01:48:49.584096","MEAN_MOTION":14.79431244,"ECCENTRICITY":0.0007372,"INCLINATION":97.7078,"RA_OF_ASC_NODE":119.0652,"ARG_OF_PERICENTER":144.7908,"MEAN_ANOMALY":231.2608,"EPHEMERIS_TYPE":0,"CLASSIFICATION_TYPE":"U","NORAD_CAT_ID":23343,"ELEMENT_SET_NO":999,"REV_AT_EPOCH":69026,"BSTAR":8.806e-5,"MEAN_MOTION_DOT":6.08e-6,"MEAN_MOTION_DDOT":0},{"OBJECT_NAME":"SL-16 R/B","OBJECT_ID":"1994-077B","EPOCH":"2026-03-30T01:08:51.285120","MEAN_MOTION":14.15569205,"ECCENTRICITY":0.0001874,"INCLINATION":70.9832,"RA_OF_ASC_NODE":309.6613,"ARG_OF_PERICENTER":196.4074,"MEAN_ANOMALY":163.6988,"EPHEMERIS_TYPE":0,"CLASSIFICATION_TYPE":"U","NORAD_CAT_ID":23405,"ELEMENT_SET_NO":999,"REV_AT_EPOCH":61911,"BSTAR":-2.0586e-5,"MEAN_MOTION_DOT":-8.8e-7,"MEAN_MOTION_DDOT":0},{"OBJECT_NAME":"ARIANE 40+ R/B","OBJECT_ID":"1995-021B","EPOCH":"2026-03-30T02:25:38.036352","MEAN_MOTION":14.39787115,"ECCENTRICITY":0.0007907,"INCLINATION":98.446,"RA_OF_ASC_NODE":160.3036,"ARG_OF_PERICENTER":83.9539,"MEAN_ANOMALY":294.208,"EPHEMERIS_TYPE":0,"CLASSIFICATION_TYPE":"U","NORAD_CAT_ID":23561,"ELEMENT_SET_NO":999,"REV_AT_EPOCH":62218,"BSTAR":0.00012714,"MEAN_MOTION_DOT":3.55e-6,"MEAN_MOTION_DDOT":0},{"OBJECT_NAME":"SL-16 R/B","OBJECT_ID":"1995-058B","EPOCH":"2026-03-30T04:43:51.810816","MEAN_MOTION":14.15498694,"ECCENTRICITY":0.0010144,"INCLINATION":71.02,"RA_OF_ASC_NODE":137.203,"ARG_OF_PERICENTER":87.8928,"MEAN_ANOMALY":272.3357,"EPHEMERIS_TYPE":0,"CLASSIFICATION_TYPE":"U","NORAD_CAT_ID":23705,"ELEMENT_SET_NO":999,"REV_AT_EPOCH":57075,"BSTAR":-9.3e-5,"MEAN_MOTION_DOT":-2.29e-6,"MEAN_MOTION_DDOT":0},{"OBJECT_NAME":"SL-16 R/B","OBJECT_ID":"1996-051B","EPOCH":"2026-03-30T05:00:02.788704","MEAN_MOTION":14.12421571,"ECCENTRICITY":0.0013415,"INCLINATION":70.7584,"RA_OF_ASC_NODE":131.8106,"ARG_OF_PERICENTER":114.807,"MEAN_ANOMALY":245.4446,"EPHEMERIS_TYPE":0,"CLASSIFICATION_TYPE":"U","NORAD_CAT_ID":24298,"ELEMENT_SET_NO":999,"REV_AT_EPOCH":52454,"BSTAR":9.4692e-5,"MEAN_MOTION_DOT":1.26e-6,"MEAN_MOTION_DDOT":0},{"OBJECT_NAME":"ORBVIEW 2 (SEASTAR)","OBJECT_ID":"1997-037A","EPOCH":"2026-03-30T04:32:09.381408","MEAN_MOTION":14.35509338,"ECCENTRICITY":0.0002335,"INCLINATION":98.8603,"RA_OF_ASC_NODE":254.0478,"ARG_OF_PERICENTER":26.7023,"MEAN_ANOMALY":333.4281,"EPHEMERIS_TYPE":0,"CLASSIFICATION_TYPE":"U","NORAD_CAT_ID":24883,"ELEMENT_SET_NO":999,"REV_AT_EPOCH":51141,"BSTAR":0.00014157,"MEAN_MOTION_DOT":3.61e-6,"MEAN_MOTION_DDOT":0},{"OBJECT_NAME":"SL-16 R/B","OBJECT_ID":"1998-043G","EPOCH":"2026-03-30T03:34:41.704320","MEAN_MOTION":14.26054589,"ECCENTRICITY":0.0009156,"INCLINATION":98.8288,"RA_OF_ASC_NODE":42.6619,"ARG_OF_PERICENTER":320.3809,"MEAN_ANOMALY":39.6701,"EPHEMERIS_TYPE":0,"CLASSIFICATION_TYPE":"U","NORAD_CAT_ID":25400,"ELEMENT_SET_NO":999,"REV_AT_EPOCH":44190,"BSTAR":5.6728e-5,"MEAN_MOTION_DOT":9.0e-7,"MEAN_MOTION_DDOT":0},{"OBJECT_NAME":"SL-16 R/B","OBJECT_ID":"1998-045B","EPOCH":"2026-03-30T04:45:05.749344","MEAN_MOTION":14.161936,"ECCENTRICITY":0.0008033,"INCLINATION":71.0098,"RA_OF_ASC_NODE":138.4483,"ARG_OF_PERICENTER":336.839,"MEAN_ANOMALY":23.237,"EPHEMERIS_TYPE":0,"CLASSIFICATION_TYPE":"U","NORAD_CAT_ID":25407,"ELEMENT_SET_NO":999,"REV_AT_EPOCH":43000,"BSTAR":-8.0667e-5,"MEAN_MOTION_DOT":-2.08e-6,"MEAN_MOTION_DDOT":0},{"OBJECT_NAME":"ISS (ZARYA)","OBJECT_ID":"1998-067A","EPOCH":"2026-03-30T03:57:49.771296","MEAN_MOTION":15.48649502,"ECCENTRICITY":0.0006182,"INCLINATION":51.6344,"RA_OF_ASC_NODE":331.1363,"ARG_OF_PERICENTER":249.8594,"MEAN_ANOMALY":110.1729,"EPHEMERIS_TYPE":0,"CLASSIFICATION_TYPE":"U","NORAD_CAT_ID":25544,"ELEMENT_SET_NO":999,"REV_AT_EPOCH":55950,"BSTAR":0.00023377,"MEAN_MOTION_DOT":0.00012299,"MEAN_MOTION_DDOT":0},{"OBJECT_NAME":"CZ-4B R/B","OBJECT_ID":"1999-025C","EPOCH":"2026-03-30T02:48:15.549696","MEAN_MOTION":14.18269307,"ECCENTRICITY":0.0036007,"INCLINATION":98.6585,"RA_OF_ASC_NODE":132.9108,"ARG_OF_PERICENTER":286.558,"MEAN_ANOMALY":95.744,"EPHEMERIS_TYPE":0,"CLASSIFICATION_TYPE":"U","NORAD_CAT_ID":25732,"ELEMENT_SET_NO":999,"REV_AT_EPOCH":39106,"BSTAR":4.8193e-5,"MEAN_MOTION_DOT":5.6e-7,"MEAN_MOTION_DDOT":0},{"OBJECT_NAME":"OKEAN-O","OBJECT_ID":"1999-039A","EPOCH":"2026-03-30T03:10:51.768768","MEAN_MOTION":14.80368497,"ECCENTRICITY":8.56e-5,"INCLINATION":97.94,"RA_OF_ASC_NODE":148.812,"ARG_OF_PERICENTER":94.8275,"MEAN_ANOMALY":265.3035,"EPHEMERIS_TYPE":0,"CLASSIFICATION_TYPE":"U","NORAD_CAT_ID":25860,"ELEMENT_SET_NO":999,"REV_AT_EPOCH":43741,"BSTAR":0.00012079,"MEAN_MOTION_DOT":8.7e-6,"MEAN_MOTION_DDOT":0},{"OBJECT_NAME":"SL-16 R/B","OBJECT_ID":"1999-039B","EPOCH":"2026-03-30T03:51:27.268128","MEAN_MOTION":14.81759692,"ECCENTRICITY":0.001466,"INCLINATION":97.9921,"RA_OF_ASC_NODE":148.2224,"ARG_OF_PERICENTER":185.8471,"MEAN_ANOMALY":174.2573,"EPHEMERIS_TYPE":0,"CLASSIFICATION_TYPE":"U","NORAD_CAT_ID":25861,"ELEMENT_SET_NO":999,"REV_AT_EPOCH":43989,"BSTAR":0.0001016,"MEAN_MOTION_DOT":7.49e-6,"MEAN_MOTION_DDOT":0},{"OBJECT_NAME":"DELTA 2 R/B","OBJECT_ID":"1999-041E","EPOCH":"2026-03-30T01:00:24.634656","MEAN_MOTION":14.11884377,"ECCENTRICITY":0.0502658,"INCLINATION":51.7607,"RA_OF_ASC_NODE":219.9784,"ARG_OF_PERICENTER":48.45,"MEAN_ANOMALY":315.8423,"EPHEMERIS_TYPE":0,"CLASSIFICATION_TYPE":"U","NORAD_CAT_ID":25876,"ELEMENT_SET_NO":999,"REV_AT_EPOCH":36590,"BSTAR":0.00021979,"MEAN_MOTION_DOT":1.123e-5,"MEAN_MOTION_DDOT":0}]
